ONEWEB-0205             
1 48226U 21031S   24345.15252876  .00000079  00000+0  17777-3 0  9990
2 48226  87.9015  39.8690 0001813 106.7188 253.4141 13.14502952175491
ONEWEB-0206             
1 48227U 21031T   24345.12556617 -.00000159  00000+0 -46298-3 0  9999
2 48227  87.9008  39.8594 0001889 106.2882 253.8456 13.14501862175443
ONEWEB-0182             
1 48228U 21031U   24345.42527788 -.00000137  00000+0 -40423-3 0  9990
2 48228  87.9013  39.8343 0001959  97.4103 262.7250 13.14501988175694
ONEWEB-0186             
1 48229U 21031V   24345.13192196  .00000095  00000+0  22100-3 0  9993
2 48229  87.9015  39.8555 0001769 103.1486 256.9841 13.14504545175604
ONEWEB-0181             
1 48230U 21031W   24344.88134969 -.00000150  00000+0 -43972-3 0  9994
2 48230  87.9017  39.9758 0001643 103.3055 256.8258 13.14502210175416
ONEWEB-0188             
1 48231U 21031X   24344.46271221  .00000155  00000+0  38229-3 0  9994
2 48231  87.9014  40.0529 0001785 100.9817 259.1513 13.14503417175262
ONEWEB-0220             
1 48232U 21031Y   24344.88293994 -.00000204  00000+0 -58566-3 0  9995
2 48232  87.9009  39.9232 0001916 110.4932 249.6403 13.14503039175582
ONEWEB-0165             
1 48233U 21031Z   24344.91149035  .00000187  00000+0  47065-3 0  9996
2 48233  87.9014  39.9461 0001708 106.8148 253.3169 13.14502395175541
